0 IRIDIUM 36
1 24967U 97056C   24002.59486492  .00000423  00000-0  13723-3 0  9998
2 24967  86.3959  36.1963 0002046  90.2801 269.8631 14.36567732375879
0 IRIDIUM 39
1 25042U 97069D   24003.13313087  .00000701  00000-0  18463-3 0  9992
2 25042  86.3907  78.6136 0016227 279.0514  80.8853 14.47600754372355
0 IRIDIUM 38
1 25043U 97069E   24002.72460772  .00000569  00000-0  18524-3 0  9991
2 25043  86.3960  96.6189 0003884  77.7720 282.3912 14.37037384369601
0 IRIDIUM 42
1 25077U 97077A   24002.78982903  .00000517  00000-0  17354-3 0  9991
2 25077  86.3966 102.1147 0002603  84.4915 275.6578 14.35333810364946
0 IRIDIUM 44
1 25078U 97077B   24002.77500306  .00000569  00000-0  17753-3 0  9994
2 25078  86.3950  85.4659 0002029  39.9431 320.1917 14.39145670367249
0 IRIDIUM 45
1 25104U 97082A   24002.89926958  .00009015  00000-0  55375-3 0  9995
2 25104  86.3760 300.0026 0176053 121.5107 240.3460 14.97801227372174
0 IRIDIUM 24
1 25105U 97082B   24002.92908628  .00000722  00000-0  21864-3 0  9996
2 25105  86.3916 305.2756 0012932  40.1255 320.0897 14.40912887366930
0 IRIDIUM 51
1 25262U 98018A   24002.90099414  .00012630  00000-0  66140-3 0  9999
2 25262  86.3910 310.3111 0162542  73.9436 287.9629 15.04856859366579
